{
    "satellites": [
        {
            "name": "starlink319",
            "title": "Starlink-319 (G11-14)",
            "tle": [
                "1 70757C 25254AB  25317.82548611 -.01474700  00000+0 -35060-2 0  3171",
                "2 70757  53.1566  58.9895 0000846  65.5582 174.5505 15.97440358    11"
            ],
            "stdMag": 5,
            "noradId": "70757",
            "tleUrl": "http://celestrak.org/NORAD/elements/supplemental/sup-gp.php?FILE=starlink&FORMAT=tle",
            "launchDate": "2025-11-06T21:13:50.000Z",
            "active": true,
            "batch": [
                {
                    "noradId": "70757",
                    "tle": [
                        "1 70757C 25254AB  25317.82548611 -.01474700  00000+0 -35060-2 0  3171",
                        "2 70757  53.1566  58.9895 0000846  65.5582 174.5505 15.97440358    11"
                    ]
                },
                {
                    "noradId": "70759",
                    "tle": [
                        "1 70759C 25254AD  25317.82756944 -.01485400  00000+0 -35067-2 0  3179",
                        "2 70759  53.1569  58.9712 0000918  62.3823 193.3479 15.97580361    15"
                    ]
                },
                {
                    "noradId": "70758",
                    "tle": [
                        "1 70758C 25254AC  25317.82756944 -.01479400  00000+0 -35049-2 0  3171",
                        "2 70758  53.1569  58.9746 0001000  60.3615 193.6951 15.97509388    19"
                    ]
                },
                {
                    "noradId": "70755",
                    "tle": [
                        "1 70755C 25254Z   25317.83243056 -.01475700  00000+0 -35241-2 0  3177",
                        "2 70755  53.1568  58.9575 0000823  57.8991 220.5309 15.97360380    19"
                    ]
                },
                {
                    "noradId": "70756",
                    "tle": [
                        "1 70756C 25254AA  25317.83243056 -.01461900  00000+0 -35076-2 0  3171",
                        "2 70756  53.1572  58.9623 0001000  55.9212 220.1578 15.97259056    13"
                    ]
                },
                {
                    "noradId": "70754",
                    "tle": [
                        "1 70754C 25254Y   25317.83104167 -.01451400  00000+0 -34969-2 0  3172",
                        "2 70754  53.1568  58.9740 0000872  53.3618 212.5135 15.97172214    18"
                    ]
                },
                {
                    "noradId": "70752",
                    "tle": [
                        "1 70752C 25254W   25317.83243056 -.01438600  00000+0 -34799-2 0  3179",
                        "2 70752  53.1566  58.9706 0000782  65.9590 205.9766 15.97084951    10"
                    ]
                },
                {
                    "noradId": "70753",
                    "tle": [
                        "1 70753C 25254X   25317.82548611 -.01424400  00000+0 -34550-2 0  3172",
                        "2 70753  53.1568  59.0103 0000897  59.5942 170.5837 15.97019937    11"
                    ]
                },
                {
                    "noradId": "70751",
                    "tle": [
                        "1 70751C 25254V   25317.82965278 -.01410400  00000+0 -34363-2 0  3179",
                        "2 70751  53.1571  58.9931 0000887  63.2634 188.9737 15.96923820    15"
                    ]
                },
                {
                    "noradId": "70749",
                    "tle": [
                        "1 70749C 25254T   25317.82895833 -.01395700  00000+0 -34125-2 0  3176",
                        "2 70749  53.1573  59.0005 0001000  57.3851 189.0852 15.96842018    10"
                    ]
                },
                {
                    "noradId": "70750",
                    "tle": [
                        "1 70750C 25254U   25317.82826389 -.01370700  00000+0 -33667-2 0  3171",
                        "2 70750  53.1572  59.0086 0000903  61.9179 178.2887 15.96733184    16"
                    ]
                },
                {
                    "noradId": "70748",
                    "tle": [
                        "1 70748C 25254S   25317.83173611 -.01356600  00000+0 -33483-2 0  3171",
                        "2 70748  53.1569  58.9951 0000761  66.3156 191.7311 15.96629295    13"
                    ]
                },
                {
                    "noradId": "70747",
                    "tle": [
                        "1 70747C 25254R   25317.82687500 -.01303400  00000+0 -32415-2 0  3170",
                        "2 70747  53.1571  59.0284 0000986  63.5836 162.5651 15.96433141    15"
                    ]
                },
                {
                    "noradId": "70746",
                    "tle": [
                        "1 70746C 25254Q   25317.82965278 -.01324900  00000+0 -32833-2 0  3172",
                        "2 70746  53.1571  59.0106 0000887  60.5141 183.4927 15.96520927    10"
                    ]
                },
                {
                    "noradId": "70745",
                    "tle": [
                        "1 70745C 25254P   25317.82618056 -.01260300  00000+0 -31598-2 0  3170",
                        "2 70745  53.1573  59.0401 0001000  60.7120 157.6140 15.96238865    13"
                    ]
                },
                {
                    "noradId": "70744",
                    "tle": [
                        "1 70744C 25254N   25317.83312500 -.01281200  00000+0 -32033-2 0  3172",
                        "2 70744  53.1570  59.0009 0000816  56.1523 203.8036 15.96311270    13"
                    ]
                },
                {
                    "noradId": "70743",
                    "tle": [
                        "1 70743C 25254M   25317.83104167 -.01241200  00000+0 -31284-2 0  3172",
                        "2 70743  53.1573  59.0199 0000948  64.2354 179.8755 15.96120586    11"
                    ]
                },
                {
                    "noradId": "70742",
                    "tle": [
                        "1 70742C 25254L   25317.82756944 -.01221700  00000+0 -30917-2 0  3171",
                        "2 70742  53.1574  59.0416 0001055  61.7483 160.3804 15.96025816    18"
                    ]
                },
                {
                    "noradId": "70741",
                    "tle": [
                        "1 70741C 25254K   25317.82826389 -.01201800  00000+0 -30560-2 0  3174",
                        "2 70741  53.1573  59.0426 0001000  59.2519 164.6996 15.95915001    11"
                    ]
                },
                {
                    "noradId": "70740",
                    "tle": [
                        "1 70740C 25254J   25317.83381944 -.01187900  00000+0 -30369-2 0  3178",
                        "2 70740  53.1573  59.0186 0000770  62.0408 191.7730 15.95801920    16"
                    ]
                },
                {
                    "noradId": "70739",
                    "tle": [
                        "1 70739C 25254H   25317.82895833 -.01176000  00000+0 -30157-2 0  3176",
                        "2 70739  53.1575  59.0471 0001050  62.1043 162.0728 15.95731571    13"
                    ]
                },
                {
                    "noradId": "70738",
                    "tle": [
                        "1 70738C 25254G   25317.82826389 -.01165900  00000+0 -30032-2 0  3174",
                        "2 70738  53.1571  59.0549 0001000  58.4464 159.6849 15.95637801    11"
                    ]
                },
                {
                    "noradId": "70737",
                    "tle": [
                        "1 70737C 25254F   25317.83104167 -.01159500  00000+0 -30000-2 0  3171",
                        "2 70737  53.1573  59.0450 0001000  64.0403 168.1600 15.95548849    12"
                    ]
                },
                {
                    "noradId": "70736",
                    "tle": [
                        "1 70736C 25254E   25317.83173611 -.01151300  00000+0 -29919-2 0  3177",
                        "2 70736  53.1574  59.0450 0000921  67.6594 166.6454 15.95458371    13"
                    ]
                },
                {
                    "noradId": "70735",
                    "tle": [
                        "1 70735C 25254D   25317.83104167 -.01147100  00000+0 -29920-2 0  3171",
                        "2 70735  53.1574  59.0523 0001000  59.3458 169.2157 15.95383941    18"
                    ]
                },
                {
                    "noradId": "70734",
                    "tle": [
                        "1 70734C 25254C   25317.83173611 -.01149100  00000+0 -30104-2 0  3178",
                        "2 70734  53.1576  59.0530 0000983  60.9764 169.6811 15.95305114    11"
                    ]
                },
                {
                    "noradId": "70733",
                    "tle": [
                        "1 70733C 25254B   25317.83104167 -.01138400  00000+0 -29976-2 0  3173",
                        "2 70733  53.1579  59.0615 0001065  64.0710 160.2100 15.95197917    13"
                    ]
                },
                {
                    "noradId": "70732",
                    "tle": [
                        "1 70732C 25254A   25317.82895833 -.01136800  00000+0 -30006-2 0  3176",
                        "2 70732  53.1577  59.0751 0001049  59.5806 151.4824 15.95152032    12"
                    ]
                }
            ]
        }
    ],
    "config": {}
}